[{"OBJECT_NAME":"YAOGAN-30 10A","OBJECT_ID":"2021-055A","EPOCH":"2026-03-09T23:48:28.291104","MEAN_MOTION":15.02193247,"ECCENTRICITY":0.0004983,"INCLINATION":34.9965,"RA_OF_ASC_NODE":36.5937,"ARG_OF_PERICENTER":279.793,"MEAN_ANOMALY":80.2215,"EPHEMERIS_TYPE":0,"CLASSIFICATION_TYPE":"U","NORAD_CAT_ID":48860,"ELEMENT_SET_NO":999,"REV_AT_EPOCH":25825,"BSTAR":0.00036861198,"MEAN_MOTION_DOT":4.929e-5,"MEAN_MOTION_DDOT":0},{"OBJECT_NAME":"STARLINK-6080","OBJECT_ID":"2023-046V","EPOCH":"2026-03-09T06:43:29.050176","MEAN_MOTION":15.02529038,"ECCENTRICITY":0.00013131,"INCLINATION":43.0031,"RA_OF_ASC_NODE":160.8932,"ARG_OF_PERICENTER":268.5146,"MEAN_ANOMALY":91.5546,"EPHEMERIS_TYPE":0,"CLASSIFICATION_TYPE":"U","NORAD_CAT_ID":56112,"ELEMENT_SET_NO":999,"REV_AT_EPOCH":16200,"BSTAR":-9.3657689e-5,"MEAN_MOTION_DOT":-1.468e-5,"MEAN_MOTION_DDOT":0}]
